S-NET D                 
1 43186U 18014G   22074.69361517  .00002602  00000+0  22807-3 0  9990
2 43186  97.6658 342.2218 0008853 249.0886 110.9389 14.97503188224889
S-NET B                 
1 43187U 18014H   22074.69365910  .00002592  00000+0  22717-3 0  9990
2 43187  97.6656 342.1777 0008851 248.9895 111.0381 14.97502142224886
S-NET A                 
1 43188U 18014J   22074.69389510  .00002567  00000+0  22505-3 0  9990
2 43188  97.6660 342.2359 0008849 249.1044 110.9231 14.97501417224881
S-NET C                 
1 43189U 18014K   22074.69448053  .00002536  00000+0  22236-3 0  9996
2 43189  97.6656 342.1684 0008840 249.1634 110.8641 14.97500403223431
FENGMANIU-1 (FMN-1)     
1 43192U 18015A   22075.16900463  .00026468  00000+0  82772-3 0  9993
2 43192  97.5187 218.2224 0012021   3.4772 348.1964 15.33053354229121
SHAONIAN XING           
1 43199U 18015H   22075.14080068  .00016808  00000+0  56296-3 0  9997
2 43199  97.4983 214.1197 0014020  16.6847  87.0708 15.30918151229155
LUOJIA-1 01             
1 43485U 18048B   22075.13746854  .00001665  00000+0  24256-3 0  9998
2 43485  97.9375 157.8972 0012551 137.0632 223.1575 14.77112128204095
SURFSAT                 
1 43614U 18070B   22074.86454124  .00028074  00000+0  53408-3 0  9996
2 43614  93.0229  59.2504 0014010  41.9048 318.3281 15.48038268196559
CP7 (DAVE)              
1 43615U 18070C   22074.88536795  .00025719  00000+0  49963-3 0  9998
2 43615  93.0235  59.1630 0014266  41.8051 318.4294 15.47438628196538
ELFIN-B                 
1 43616U 18070D   22074.99630608  .00045675  00000+0  69841-3 0  9999
2 43616  93.0165  59.9430 0012848  38.6587 321.5592 15.54147038196782
ELFIN-A                 
1 43617U 18070E   22075.02769244  .00044762  00000+0  65939-3 0  9994
2 43617  93.0237  61.1190 0011700  37.5391 322.6687 15.55190422196826
CZ-4B R/B               
1 43656U 18081B   22075.07376980  .00000114  00000+0  51610-4 0  9990
2 43656  99.3805 201.4431 0209043  52.5749 309.4253 14.30526898177002
CUBEBEL-1 (BSUSAT-1)    
1 43666U 18083E   22075.18218058  .00010509  00000+0  47116-3 0  9990
2 43666  97.4318 105.0037 0011846 302.8773 130.0212 15.21342720187298
CHANGSHAGAOXIN (TY 4-01)
1 43669U 18083H   22075.13943068  .00009889  00000+0  46262-3 0  9994
2 43669  97.4253 101.2207 0008292 302.3570 143.9180 15.19928378187122
TEN-KOH                 
1 43677U 18084G   22074.92474966  .00001410  00000+0  14899-3 0  9999
2 43677  97.9480 204.2341 0015169 216.1112 143.9082 14.90786409183746
DIWATA-2B               
1 43678U 18084H   22075.09909217  .00000955  00000+0  10002-3 0  9996
2 43678  97.9528 207.3766 0008976 228.3362 131.7050 14.91962484183936
STARS-AO                
1 43679U 18084J   22075.11753383  .00002927  00000+0  28678-3 0  9990
2 43679  97.9576 209.0876 0007998 233.7611 126.2869 14.93041645184017
AUTCUBE 2               
1 43681U 18084K   22074.89667221  .00001954  00000+0  19598-3 0  9992
2 43681  97.9534 207.6482 0008514 228.9922 131.0561 14.92509339183893
IRVINE01                
1 43693U 18088D   22074.88520355  .00026117  00000+0  85759-3 0  9994
2 43693  85.0356  13.9410 0017775  97.5972 262.7295 15.31290658185870
ES'HAIL 2               
1 43700U 18090A   22074.79370876  .00000141  00000+0  00000+0 0  9998
2 43700   0.0169 171.9220 0002333 205.9982 106.9563  1.00271981 12338
FACSAT-1                
1 43721U 18096C   22075.11667792  .00019456  00000+0  62007-3 0  9998
2 43721  97.3586 155.2803 0015244  32.3096  60.6251 15.32465125183668
CENTAURI-2              
1 43722U 18096D   22075.19537714  .00018265  00000+0  54446-3 0  9992
2 43722  97.3618 156.8946 0014685  27.5879 332.6140 15.34613525183753
3CAT-1                  
1 43728U 18096K   22075.14245375  .00018249  00000+0  54069-3 0  9995
2 43728  97.3633 157.5586 0014440  31.3324 328.8776 15.34808666183788
INNOSAT-2               
1 43738U 18096V   22075.19405466  .00038952  00000+0  95182-3 0  9994
2 43738  97.3707 162.7248 0016994  19.5793  34.5264 15.40572828184114
REAKTOR HELLO WORLD     
1 43743U 18096AA  22074.77809958  .00009674  00000+0  31991-3 0  9994
2 43743  97.3594 155.2013 0016607  38.0540 322.1871 15.31423557183616
ELYSIUM STAR 2 & LFF    
1 43760U 18099C   22074.81757972  .00005489  00000+0  47538-3 0  9993
2 43760  97.6402 145.4153 0012574 210.5310 149.5182 14.97467634179103
2018-099D               
1 43761U 18099D   22074.81286763  .00002215  00000+0  20427-3 0  9991
2 43761  97.6323 144.0134 0013515 216.0711 143.9576 14.95597072179026
AISTECHSAT 2            
1 43768U 18099L   22075.16722305  .00001333  00000+0  12591-3 0  9997
2 43768  97.6276 142.9709 0010604 215.4940 144.5576 14.95326079178740
FOX-1CLIFF (AO-95)      
1 43770U 18099N   22074.69201884  .00001808  00000+0  16653-3 0  9991
2 43770  97.6317 143.4704 0013233 226.0186 133.9945 14.95887245178997
RANGE-A                 
1 43772U 18099Q   22074.85481039  .00003024  00000+0  27180-3 0  9992
2 43772  97.6408 145.0983 0013482 211.5310 148.5105 14.96356552179030
RANGE-B                 
1 43773U 18099R   22074.72712745  .00002227  00000+0  20521-3 0  9996
2 43773  97.6240 142.5222 0012711 211.0301 149.0171 14.95628805178986
2018-099T               
1 43775U 18099T   22074.71904277  .00001535  00000+0  14295-3 0  9992
2 43775  97.6310 143.6643 0013753 216.7245 143.3035 14.95644730178993
MOVE-II                 
1 43780U 18099Y   22074.85504405  .00003711  00000+0  32842-3 0  9998
2 43780  97.6337 144.5501 0012675 220.1321 139.8966 14.96830435179058
SNUSAT-2                
1 43782U 18099AA  22074.81762703  .00002373  00000+0  21589-3 0  9992
2 43782  97.6320 144.0264 0011733 208.5933 151.4646 14.96089447179038
SNUGLITE                
1 43784U 18099AC  22075.13457458  .00003099  00000+0  27901-3 0  9998
2 43784  97.6275 143.9944 0014010 215.9714 144.0565 14.96260157179107
ITASAT 1                
1 43786U 18099AE  22074.83056943  .00001434  00000+0  13233-3 0  9994
2 43786  97.6338 144.4686 0014056 218.3223 141.7001 14.96108095179055
KAZSCISAT-1             
1 43787U 18099AF  22074.84278988  .00003395  00000+0  29997-3 0  9993
2 43787  97.6249 143.6258 0013478 214.0686 145.9672 14.96935063179093
EAGLET-I                
1 43790U 18099AJ  22074.73944245  .00002049  00000+0  18576-3 0  9997
2 43790  97.6328 144.8904 0012276 220.5955 139.4352 14.96370075178775
ESEO                    
1 43792U 18099AL  22074.77769368  .00000678  00000+0  65450-4 0  9994
2 43792  97.6282 144.2681 0012372 218.9965 141.0365 14.95975692178825
CSIM-FD                 
1 43793U 18099AM  22074.80357759  .00004352  00000+0  37783-3 0  9996
2 43793  97.6344 145.2882 0012269 209.6906 150.3621 14.97487975178862
ASTROCAST 0.1           
1 43798U 18099AS  22074.76834469  .00002129  00000+0  19050-3 0  9991
2 43798  97.6340 145.2684 0011747 198.9430 161.1356 14.96849845179093
JY1SAT (JO-97)          
1 43803U 18099AX  22074.74165967  .00003408  00000+0  30464-3 0  9999
2 43803  97.6303 144.1204 0013930 216.2430 143.7849 14.96476328179056
SUOMI-100               
1 43804U 18099AY  22074.82136528  .00002278  00000+0  20561-3 0  9991
2 43804  97.6300 144.1369 0013949 217.0465 142.9794 14.96417774179075
AL-FARABI 2             
1 43805U 18099AZ  22074.90519611  .00003179  00000+0  28219-3 0  9998
2 43805  97.6325 144.6124 0014019 216.4217 143.6050 14.96803075179104
CENTAURI-1              
1 43809U 18099BD  22074.77506260  .00001546  00000+0  14169-3 0  9998
2 43809  97.6303 144.4199 0014311 219.6821 140.3354 14.96278446178765
CHOMPTT                 
1 43855U 18104G   22075.10638449  .00006752  00000+0  26193-3 0  9993
2 43855  85.0332 113.3092 0014864 215.4843 144.5414 15.25808491180484
DAVINCI                 
1 43857U 18104J   22075.13204449  .00020886  00000+0  69241-3 0  9992
2 43857  85.0270 112.1094 0010758 233.5789 126.4466 15.31091558180553
UWE-4                   
1 43880U 18111E   22074.74116505  .00003017  00000+0  26341-3 0  9998
2 43880  97.6743 342.7001 0010571 275.3183  84.6832 14.97523547175675
ZACUBE-2                
1 43907U 18111AH  22075.14193663  .00005371  00000+0  20809-3 0  9991
2 43907  97.2047 324.7847 0022144  54.0656 102.0305 15.26335716179050
MICRODRAGON             
1 43935U 19003D   22074.66774650  .00004808  00000+0  19705-3 0  9997
2 43935  97.1494 109.0500 0018481 142.9472 217.3046 15.24568891175405
AOBA VELOX-IV           
1 43940U 19003J   22075.11068310  .00021609  00000+0  69750-3 0  9996
2 43940  97.1426 114.0260 0021676 118.9930 241.3488 15.31912861175817
M6P                     
1 44109U 19018AF  22074.87712713  .00014254  00000+0  38532-3 0  9997
2 44109  97.4014 158.2774 0052329 103.6918 257.0159 15.36417915165078
FORMOSAT 7-4            
1 44350U 19036M   22074.07246001  .00004108  00000+0  23442-3 0  9990
2 44350  24.0003 312.4036 0006129  37.7852 322.3082 15.08598766149195
PAINANI 1               
1 44365U 19037A   22074.76767948  .00025874  00000+0  49829-3 0  9991
2 44365  45.0012 180.6047 0007516 341.2677  18.7937 15.47445174152691
ACRUX 1                 
1 44369U 19037E   22074.89626066  .00076079  00000+0  83379-3 0  9995
2 44369  45.0004 136.9306 0014140  14.0815 346.0473 15.62263011153179
METEOR-M2 2             
1 44387U 19038A   22075.17294009  .00000041  00000+0  37130-4 0  9997
2 44387  98.7110  36.7575 0001713 141.4334 218.6979 14.23701689140131
VDNH-80                 
1 44392U 19038G   22075.12773300  .00009881  00000+0  52276-3 0  9992
2 44392  97.6246  44.5292 0022342  95.4087  37.7512 15.15439305148701
D-STAR ONE (LIGHTSAT)   
1 44393U 19038H   22074.85120791  .00007963  00000+0  42266-3 0  9999
2 44393  97.6257  44.1223 0022591  96.0596 264.3211 15.15388206148855
AMGU-1 (AMURSAT)        
1 44394U 19038J   22075.19433097  .00010408  00000+0  54987-3 0  9995
2 44394  97.6249  44.4042 0022607  93.9671 266.4151 15.15470407148904
